id,name,brewery_type,address_1,address_2,address_3,city,state_province,postal_code,country,phone,website_url,longitude,latitude
d35b40b0-a3ff-4878-a6ee-9caa2149b521,1623 Brewing Company,brewpub,5975 Exchange Dr Suite H-L,,,Eldersburg,Maryland,21784,United States,4432181410,https://1623brewing.com,-76.9773575,39.4164017
31935dfe-87ab-4b3c-b845-1347e78f3d98,1812 Brewery,micro,13006 Mason Road NE,,,Cumberland,Maryland,21502,United States,3013382490,http://1812brewery.com/,-78.7008528,39.7021475
258bdc0a-6d5d-4c36-bcf7-e150b3ec6333,5th Company Brewing,brewpub,325 Front Street,,,Perryville,Maryland,21903,United States,4106182046,http://www.5thcompanybrewing.com/,-76.0769909,39.5581614
4e84a8d0-0d52-431e-a57a-da8977625bd2,7 Locks Brewing,micro,12227 Wilkins Ave,,,Rockville,Maryland,20852-1833,United States,3018417123,http://www.7locksbrewing.com,-77.1103415,39.0561237
9379b79b-63c2-4ce3-9605-f499f7915f7e,Antietam Brewery,micro,140 Western Maryland Pkwy,,,Hagerstown,Maryland,21740-5197,United States,3017915915,http://www.antietambrewery.com,-77.7609769,39.6397845
d94c95b9-509c-4d53-86a6-769555e1773e,Astro Lab Brewing,closed,8216 Georgia Ave,,,Silver Spring,Maryland,20910,United States,3012739684,http://www.astrolabbrewing.com,-77.029129,38.9465532
724a6296-cdac-4d35-92fd-cc44960010ff,Attaboy Beer,micro,400 Sagner Ave Ste 400,,,Frederick,Maryland,21701-6083,United States,3013388229,http://www.attaboybeer.com/,-77.4024446,39.4121161
6918f40b-ab41-4fd8-bea0-ae8a5ce5664a,B.C. Brewery,micro,10950 Gilroy Rd Ste F,,,Hunt Valley,Maryland,21031-1327,United States,4433913847,http://www.bcbrewerymd.com,-76.6623019,39.4827911
e6df4e9e-1833-49b0-90e5-69c565c5da83,Back Creek Brewing Company,closed,,,,Annapolis,Maryland,21401-4019,United States,4103206904,http://www.backcreekbrewing.com,,
b617c420-3a48-41f3-a529-68dccd1e253f,Backshore Brewing Co.,closed,913 Atlantic Ave,,,Ocean City,Maryland,21842-6689,United States,4102890008,http://www.BackshoreBrew.com,-75.0803756,38.3402519
17d563f1-e620-4a74-8d39-3486312454f2,Baltimore Washington Beer Works,contract,2500 Grays Rd,,,Dundalk,Maryland,21222,United States,4438476223,http://www.ravenbeer.com,-76.4644662,39.2446743
63e51e47-8ece-4348-bdbc-313f2d8be6e2,Barley and Hops Grill,brewpub,5473 Urbana Pike,,,Frederick,Maryland,21704-7275,United States,3016685555,http://www.barleyandhops.net,-77.3995969,39.38204685
183c07fd-e383-482c-ae49-3338cc4a086d,Battery Island Brewing Company,nano,101A N Washington St,,,Havre de Grace,Maryland,21078,United States,4434170534,https://batteryislandbrewing.com/,-76.0896568,39.5479443
04fdb76b-b189-4234-a26e-caa9a43d55f0,Big Truck Farm Brewery,micro,19919 Cameron Mill Road,,,Parkton,Maryland,21120,United States,4439344231,http://www.bigtruckfarms.com,-76.6603546,39.6710739
88559f42-b68b-4ba9-963c-c15d13986a72,Bird Nickel Brewing Company,closed,7592 Tred Avon Cir,,,Easton,Maryland,21601,United States,4103106042,https://birdnickel.com,-76.1085271,38.7580923
f6cc21c0-039d-4257-9869-b168502185d6,Black Flag Brewing Company,micro,9315 Snowden River Pkwy,,,Columbia,Maryland,21046-2091,United States,4438645139,http://www.blackflagbrewingco.com,-76.810364,39.192524
20fd4022-dff3-40a9-9bb1-9e28ff1ac58e,Black Locust Hops and Farm Brewery,nano,21305 Heathcote Rd,,,Freeland,Maryland,21053,United States,4103021415,http://www.blacklocusthops.com/,-76.6647545,39.708937
15ca5ecd-4af8-47bb-8f16-175d8cd6cb41,Bog Turtle Brewery,closed,10 East Main Street,,,Rising Sun,Maryland,21911,United States,4847580416,http://www.bogturtlebrewery.com/,-76.0624313,39.6979942
a3e3c312-6c4e-4bf1-b096-d1517e6f0bf5,Brawling Bear,closed,15 Fulks Corner Ave,,,Gaithersburg,Maryland,20877-2067,United States,2408423272,http://www.brawlingbear.com,-77.1960114,39.1403943
24809e21-a74e-4177-b138-99aae56fe7f9,Brew House No 16,closed,831 N Calvert St,,,Baltimore,Maryland,21202-3705,United States,4106594084,http://www.brewhouseno16.com,-76.6127147,39.2996249
61c3bf4d-95e0-4afd-8d93-b2764ae5eba5,Brewer's Alley Restaurant and Brewery,brewpub,124 N Market St,,,Frederick,Maryland,21701-5422,United States,3016310089,http://www.brewers-alley.com,-77.41045515,39.41607325
3ec0ac7c-9ca0-43f3-ab7d-a8ac94b92794,Brewery Fire,micro,"4337 Old Taneytown Road, Suite B",,,Taneytown,Maryland,21787,United States,4103909016,http://www.breweryfire.com/,-77.155309,39.6467305
33f3c0ee-2a5c-4698-8345-b4db2950dd0d,Broken Gate Brewing,closed,1201 S Charles St,,,Baltimore,Maryland,21230,United States,3103453570,https://www.facebook.com/brokengate/,-76.6166558,39.2755847
47ce7e5f-74fe-4a8e-8fe0-35ecd8338537,Brookeville Beer Farm,micro,20315 Georgia Ave,,,Brookeville,Maryland,20833-1711,United States,3012601000,http://www.brookevillebeerfarm.com,-77.0579247,39.1780888
d98361ed-a26d-4041-bea4-16b69a115353,Brothers Ridge Cider,micro,400 South Clear Ridge Road,,,New Windsor,Maryland,21776,United States,4432197775,http://brothersridgecider.com/,-77.125654,39.560699
cd922df7-7e27-4fdd-9beb-a203c859b25f,Bull & Goat Brewery,micro,204 Banjo Ln,,,Centreville,Maryland,21617-1067,United States,,http://www.bullandgoatbrewery.com,-76.0627151,39.0451719
90e8f363-3b72-4ca9-bef8-b3a2ab6008df,Burley Oak Craft Brewery,micro,10016 Old Ocean City Blvd,,,Berlin,Maryland,21811-1145,United States,4104228887,http://www.burleyoak.com,-75.2169864,38.3336448
d412b4eb-0940-441d-afd8-ec199d9bb9e0,Burnish Beer Company,brewpub,"2305 Northwood Dr., Suite E",,,Salisbury,Maryland,21801,United States,4439787320,http://www.burnishbeerco.com/,-75.5759429,38.4083982
47b3c151-04cb-47bb-8b74-f46bd3ee1fc3,"BW Farm, LLC",planning,,,,Owings,Maryland,20736-9109,United States,2406727995,,,
66830819-c0ed-462b-b7c6-5b6006fa7df0,Calvert Brewing Co,closed,150 Adelina Rd,,,Prince Frederick,Maryland,20678-3709,United States,4104148486,http://www.calvertbrewingcompany.com,-76.9271225,38.5085398
a440c125-f424-4b18-9adc-27c2965ce6ac,Calvert Brewing Co,micro,15850 Commerce Ct,,,Upper Marlboro,Maryland,20774-7437,United States,2402454609,http://calvertbrewingcompany.com,-76.7308502,38.8857841
6264ddf4-1dc2-4591-baed-ad889c0b5230,Checkerspot Brewing Company,brewpub,1421 Ridgely St.,,,Baltimore,Maryland,21230,United States,4105915527,http://www.checkerspotbrewing.com,-76.626918,39.275747
7646821c-eb5d-4e8f-888e-d1f76f9cb366,Chesapeake Brewing Co,closed,114 West St,,,Annapolis,Maryland,21401-2802,United States,4102680000,http://www.chesbrewco.com,-76.497474,38.9780816
b2763258-7b12-4551-b16f-3c9deba2bc7e,Chesepiooc Real Ale Brewery,micro,2408 Crofton Blvd,,,Crofton,Maryland,21114,United States,4106301579,http://www.brewcrab.com,-76.69804666,39.01687169
00f8bed7-b98c-483d-a9ba-85871c82f308,Clear Skies Meadery,micro,15201 Display Ct,,,Rockville,Maryland,20850,United States,3018678965,https://clearskiesmeadery.com/,-77.1468812,39.1044597
55191259-586a-4fb8-9050-33b7e0540a74,Costa Ventosa Winery & Vineyard,brewpub,9031 Whaleyville Rd,,,Whaleyville,Maryland,21872-2116,United States,4433339867,http://www.costaventosa.com,-75.26004107,38.42358687
9b94f17c-c19e-4a58-8621-a0beef7db4cd,Crooked Crab Brewing Company,micro,"8251 Telegraph Road, Suite E",,,Odenton,Maryland,21113,United States,4435699187,http://www.cookedcrabbrewing.com,-76.69482405,39.09729159
425d365e-db70-46c4-be09-d000727eb003,Cult Classic Brewing,micro,1169 Shopping Center Drive,,,Stevensville,Maryland,21666,United States,4109808097,http://www.cultclassicbrewing.com,-76.2978846,38.9757006
f9be35ca-e823-4321-b7be-837ac5c152a3,Cushwa Brewing Co,micro,10210 Governor Lane Blvd #2010,,,Williamsport,Maryland,21795,United States,,http://www.cushwabrewing.com,-77.8076398,39.5951174
da34f414-042a-4e65-ad6e-3069b6a205d0,Dempsey's Brew Pub and Restaurant - Baltimore,closed,333 W Camden St,,,Baltimore,Maryland,21201,United States,4108437901,http://www.dempseysbaltimore.com,-76.620285,39.2840156
1a390f44-9b37-4c41-b482-c974f068092a,Denizens Brewing Company,brewpub,4550 Van Buren Street,,,Riverdale Park,Maryland,20737,United States,3015579818,http://www.denizensbrewingco.com,-77.02848142,38.98957715
9b5f8aec-9e48-447c-b1bb-11bc30201399,Dig Deep Brewing Co.,micro,"2 Howard Street, Suite B",,,Cumberland,Maryland,21502,United States,3013381013,https://www.facebook.com/Digdeepbrewing/,-78.7618171,39.6484243
26bb52e9-27d6-44c0-a1db-214be8e23bac,Doc Waters Cidery,micro,22529 Wildcat Road,,,Germantown,Maryland,20876,United States,3019721814,https://www.docwaterscidery.com/,-77.2013931,39.2244834
a96df2d5-fc8d-4043-8a30-5c3f29ac3903,Double Groove Brewing Company,micro,"1659 Robin Circle, Suite D",,,Forest Hill,Maryland,21050,United States,4433712354,http://www.doublegroovebrewing.com/,-76.3585587,39.5686269
117dfbba-3145-4e39-b43d-5cc9964d2467,DuClaw Brewing Co,closed,8901 Yellow Brick Rd Ste B,,,Baltimore,Maryland,21237-2349,United States,4435599900,http://www.duclaw.com,-76.5943772,39.2805949
75378a8b-95fc-4a6a-8c7f-b00e4df75d64,Eastern Shore Brewing,micro,605 S Talbot St,,,Saint Michaels,Maryland,21663,United States,4107458010,http://www.easternshorebrewing.com,-76.2219945,38.78113562
8873de4c-9f12-4fc7-91f0-380d269d0563,Eden Town Brewing Company,micro,108 N. 8th Street,,,Denton,Maryland,21629,United States,4434487506,https://www.edentownbrewing.com/,-75.8226701,38.8850253
44d62e5e-209d-4432-8149-715add60e6d4,Elder Pine Brewing & Blending Company,micro,4200 Sundown Rd,,,Gaithersburg,Maryland,20882,United States,,http://www.elderpine.com,-77.0848057,39.2219183
d45b5005-7682-44a6-b852-a5be43daa838,Elk River Brewing,nano,112 East Main Street,,,Elkton,Maryland,21921,United States,4432078454,https://www.elkriverbrewing.com/,-75.8293688,39.6078048
cffb4a0f-1336-4544-b7f4-eb19b7087045,Ellicott Mills Brewing Co,brewpub,8308 Main St,,,Ellicott City,Maryland,21043-4601,United States,4103138141,http://www.ellicottmillsbrewing.com,-76.79944314,39.2681041
375f4801-e257-44f8-af0c-1e4bb3804b20,Evolution Craft Brewing Co,regional,200 Elmwood St,,,Salisbury,Maryland,21804-5522,United States,4432602337,http://www.evolutioncraftbrewing.com,-75.595254,38.361979
fe4a7fe6-9a1a-4e6b-8a7b-d4ddd6ad0efd,Evolution Craft Brewing Co. & Public House,brewpub,201 E Vine St,,,Salisbury,Maryland,21804-5515,United States,4432602337,http://www.evolutioncraftbrewing.com/,-75.595628,38.360471
e5467256-ec72-496e-82ff-8a5bf07bf2c1,Falling Branch Brewery,micro,825 Highland Rd,,,Street,Maryland,21154-1312,United States,,http://fallingbranchbeer.com,-76.3708166,39.66665004
4bd0b915-e78d-4dde-bf1d-549999499aca,Farmacy Brewing,nano,3100 Black Rock Rd,,,Reisterstown,Maryland,21136,United States,http://www.farmacybrewing.com/,http://www.farmacybrewing.com/,-76.7532322,39.5514329
87bc88da-f467-49e4-b3bf-b712e45441c9,Flood Zone Marketplace & Brewery,micro,50 North Main Street,,,Union Bridge,Maryland,21791,United States,4439376170,http://www.floodzonebrewery.com/,-77.1758886,39.5719315
e2b339ba-8984-497a-ba6b-91882dec1515,Flying Dog Brewery,regional,4607 Wedgewood Blvd,,,Frederick,Maryland,21703-7120,United States,3016947899,http://www.flyingdogbrewery.com,-77.42679107,39.3628322
5d1c9b30-24b0-4f90-875b-7822e7449ece,Forward Brewing,brewpub,418 Fourth Street,,,Annapolis,Maryland,21403,United States,4432217277,https://www.forwardeastport.com,-76.4821586,38.9709915
7ef58914-2624-4d11-9db1-5db5b6375c34,Franklins General Store,micro,5123 Baltimore Ave,,,Hyattsville,Maryland,20781-2042,United States,3019272740,http://Franklinsbrewery.com,-76.94074114,38.95194399
fc496ca5-6117-4863-b75c-2da11269792a,Frey's Brewing Company,micro,8601 Mapleville Rd,,,Mount Airy,Maryland,21771-9705,United States,3016397146,http://www.freysbrewing.com,-77.2034606,39.4706993
e0a21330-f4ab-44ba-8762-4624cff0688d,Frisco Tap House & Push Brewery,brewpub,6695 Dobbin Rd,,,Columbia,Maryland,21045-4755,United States,4103124907,http://www.friscogrille.com,-76.8252248,39.1860574
0120a1a8-0a8d-41bf-b356-a7ee260e26cd,Full Tilt Brewing,closed,5604 York Road,,,Baltimore,Maryland,21212,United States,4438352248,http://www.fulltiltbrewing.com,-76.610116,39.3581894
71c9be05-8424-4ae0-85e4-12bd966cec0d,Gateway Craft Brewing,closed,"2207 Northwood Drive, Suite 3A",,,Salisbury,Maryland,21801,United States,4439443916,https://www.facebook.com/profile.php?id=100057546636195,-75.5793429,38.4003444
9a0a767e-4958-40b0-8ed1-74bd5e719cc2,Gordon Biersch Brewery Restaurant - Annapolis,closed,1906 Towne Centre Blvd Ste 155,,,Annapolis,Maryland,21401-3681,United States,4102665965,http://www.craftworksrestaurants.com,-76.5443839,38.9815401
f7086ed0-8048-47ae-81a9-6de88b8ee3e5,Gordon Biersch Brewery Restaurant - Baltimore,closed,1000 Lancaster St Ste B,,,Baltimore,Maryland,21202-4631,United States,4102309501,http://www.craftworksrestaurants.com,-76.599724,39.282547
9448e983-7a49-499e-854b-9b2008fe58b2,Gordon Biersch Brewery Restaurant - Rockville,closed,200 E Middle Ln Unit A,,,Rockville,Maryland,20850-2206,United States,3013407159,http://www.craftworksrestaurants.com,-77.150795,39.08526
e355ff68-d879-48f6-bda8-1b68ecc68096,Grail Point Brewery,closed,700 W Main St,,,Emmitsburg,Maryland,21727,United States,2408442379,http://www.grailpointbeer.co,-77.3357491,39.706816
686f9013-ad05-449b-bf35-b76061c96c52,Granite City Food & Brewery,planning,200 American Way,,,Oxon Hill,Maryland,20745-4502,United States,2404933900,,-77.0145878,38.7841102
20b1559c-308c-469c-a5d3-91935ed72755,Greene Growlers,brewpub,227 E Diamond Ave,,,Gaithersburg,Maryland,20877,United States,2402616196,http://www.greenegrowlers.com,-77.19355584,39.1419364
6b18f400-a3e7-4ddd-8445-0b21b3974e3c,Greenspring Brewing Company,nano,2309 Greenspring Ct,,,Chesapeake Beach,Maryland,20732,United States,4102063918,http://www.greenspringbrewingcompany.com,-76.5533289,38.6892196
8ea9e8ba-3651-4a21-9211-74c8aaef062f,Guilford Hall Brewery,brewpub,1611 Guilford Avenue,,,Baltimore,Maryland,21202,United States,4103059953,http://www.guilfordhall.com/,-76.6120638,39.3083025
577e47da-8542-4261-a4ec-83b99325a42d,Guinness Open Gate Brewery and Barrel House,brewpub,5001 Washington Blvd,,,Halethorpe,Maryland,21227-5000,United States,4435756893,https://www.guinnessbrewerybaltimore.com/,-76.69843865,39.222265
c2c62d00-922c-41be-b603-b3acb04373ee,Gypsy Brewing Company,planning,,,,Huntingtown,Maryland,20639,United States,,,-76.5871928,38.6039255
107e6673-b345-431f-83c5-98f04b61ad44,Heart & Solar Brewing,closed,21213 York Rd,,,Parkton,Maryland,21120-9253,United States,4104938030,http://www.heartandsolarbrewing.com/,-76.6498797,39.7058879
856b578f-849c-463b-85e8-6e1ad852d960,Heavy Seas Beer,regional,4615 Hollins Ferry Rd Ste B,,,Baltimore,Maryland,21227-4624,United States,4102477822,http://www.hsbeer.com,-76.678423,39.2320564
2ed04dc4-f744-40b5-90fa-b0b94b757f86,Hopkins Farm Brewery,micro,3833 Rider Lane,,,Havre De Grace,Maryland,21078,United States,4109145727,http://www.hopkinsfarmbrewery.com/,-76.1806262,39.5704051
1e49519f-16fc-4641-8b9c-1c883cf03d12,HopScratch Farm & Brewery,closed,3501 Cedars Stable Rd,,,Harwood,Maryland,20776,United States,4436072627,http://www.hopscratchfarm.com/,-76.5952254,38.8957672
2482f3b6-eb54-4b4b-af1a-7f5bf6cc188d,House Cat Brewing Company,closed,400 Sagner Ave Ste 100,,,Frederick,Maryland,21701,United States,3016050733,https://housecatbrewing.com/,-77.4058091,39.4121419
973edf5b-0239-43fa-9c3d-640bb92a5225,Hysteria Brewing Company,closed,9570 Berger Rd Ste J,,,Columbia,Maryland,21046-1559,United States,4103608319,http://www.hysteriabrewing.com,-76.8443763,39.1730012
bcf296e4-8135-4002-ae22-b45d3136d11d,Idiom Brewing Company,micro,"340 East Patrick Street, #104",,,Frederick,Maryland,21701,United States,3016603133,https://www.idiombrewing.com/,-77.4038238,39.4131393
903fc6d6-d574-4b60-aaee-4ca4ea06c9a5,Independent Brewing Company,micro,418 N Main St,,,Bel Air,Maryland,21014-3509,United States,4109370108,https://www.independentbrew.com/,-76.35647784,39.53986125
5edfa9d7-c1ca-4123-98c8-459537ce3170,Inverness Brewing,micro,16200 Markoe Road,,,Monkton,Maryland,21111,United States,4438292142,http://www.invernessbrewing.com/,-76.5771799,39.5685391
05ebd2ed-d854-4d35-918c-694451eed6d9,Jailbreak Brewing Company,micro,9445 Washington Blvd N Ste F,,,Laurel,Maryland,20723-1380,United States,4433459699,http://www.jailbreakbrewing.com,-76.8233002,39.1239644
389d305d-6099-4373-8e09-3c936c05944b,Johanssons Dining House,brewpub,4 W Main St,,,Westminster,Maryland,21157-4816,United States,4108760101,http://www.johanssonsdininghouse.com,-76.9959315,39.5753896
5328dad1-5eb2-4d03-83d7-4754d185cb55,Key Brewing Co.,micro,1 N Haven St,,,Baltimore,Maryland,21224,United States,4104772337,http://www.keybrewing.com,-76.5622024,39.2929725
0da0a3c1-6642-4713-9e79-7326ac7586e5,Liquid Intrusion Brewing Company,contract,15216 General Lafayette Boulevard,,,Brandywine,Maryland,20613,United States,2404763822,https://www.libcobeer.com/,-76.8817346,38.6797764
8304a04f-9cd5-4788-9d8a-68d0aa5eacef,Liquidity Aleworks,nano,8 North Main Street,,,Mt. Airy,Maryland,21771,United States,3017031165,http://www.liquidityaleworks.com/,-77.1541854,39.377486
4380eee1-4f3d-46fb-95b1-d23970320d77,Locust Post Brewery,micro,31706 Old Adams Road,,,Little Orleans,Maryland,21766,United States,3016973519,http://www.locustpostbrewery.com/,-78.3897399,39.7032051
db573c0a-6e37-4f6d-885d-f033dd497b5d,Lone Oak Farm Brewing Company,micro,5000 Olney Laytonsville Rd,,,Olney,Maryland,20832,United States,2402614967,https://loneoakbrewingco.com/,-77.1017761,39.176506
b355c492-9798-4ba6-bb3d-17b3baf27b8b,Mad Science Brewing Company,closed,1619 Buckeystown Pike,,,Adamstown,Maryland,21710,United States,2404098723,http://www.madsciencebrewing.com,-77.4484076,39.27751
7167267a-7a89-448d-8586-9caad8d72bdb,Manor Hill Brewing,micro,4411 Manor Ln,,,Ellicott City,Maryland,21042-6111,United States,4109977771,http://www.manorhillbrewing.com,-76.884996,39.2502407
db1b4d4d-31e9-468d-8fae-2c033f6fcbe4,Market Street Public House,brewpub,200 Market St,,,Denton,Maryland,21629-1037,United States,4104794720,http://www.marketstreet.pub,-75.831804,38.886037
1e8c6af6-b064-407f-9925-278d89789d4e,Maryland Meadworks,micro,"4700 Rhode Island Avenue, Suite B",,,Hyattsville,Maryland,20781,United States,3019559644,http://www.marylandmeadworks.com/,-76.945649,38.9467116
0333aa64-4cba-4ee3-afac-c98982abf9ae,Midnight Run Brewing,micro,912 North East Street,,,Frederick,Maryland,21701,United States,2406511424,http://www.midnightrunbrew.com/,-77.4026989,39.4267696
d5e5313e-a58c-4076-a44a-07c37cb61d94,Milkhouse Brewery at Stillpoint Farm,micro,8253 Dollyhyde Rd,,,Mount Airy,Maryland,21771-9404,United States,2404011517,http://www.milkhousebrewery.com,-77.2246904,39.4592945
e3367424-09b3-4a57-afde-cb9ef81be0de,Ministry of Brewing,micro,1900 East Lombard Street,,,Baltimore,Maryland,21231,United States,4106245623,https://ministryofbrewing.com/,-76.5900816,39.2906896
53a0bd5c-f9f3-4ee4-b4b0-0a41cf89376e,Mobtown Brewing Co,micro,4015 Foster Ave #400,,,Baltimore,Maryland,21224,United States,6673093653,http://www.mobtownbrewing.com/,-76.5624995,39.2838502
adfe0535-71ce-4c68-859d-ffdf7a96883b,Monocacy Brewing Co,micro,1781 N Market St,,,Frederick,Maryland,21701-4305,United States,3016310671,http://monocacybrewing.com/,-77.3989904,39.4403205
578c6794-5cf7-492d-93ea-650309b74025,Monument City Brewing Co,micro,1 N Haven St Ste A,,,Baltimore,Maryland,21224-1614,United States,4105993008,http://www.monumentcitybrewing.com,-76.5621268,39.2925667
ab31aeb1-b596-461a-85d2-d0bbdee0b890,Mully's Brewery,micro,141 Schooner Ln Ste 15,,,Prince Frederick,Maryland,20678-3482,United States,4439689426,http://www.mullysbrewery.com,-76.6478141,38.5104287
5468ec16-0ca8-43dd-8f60-8271a2103619,Mystique Barrel Brewing and Lager House,brewpub,912 Washington Blvd,,,Baltimore,Maryland,21230,United States,5163754633,https://mystiquebarrelbrewing.com/,-76.6314845,39.2831176
c53ae7dd-b837-47ed-899f-1179608c7434,National Brewing Company,contract,28102 Baileys Neck Rd,,,Easton,Maryland,21601,United States,4103103553,http://www.nationalpremiumbeer.com,-76.105636,38.7273597
0a9f352e-21f4-4eb6-a11e-2c4aa3732307,Nepenthe Brewing Co.,brewpub,3626 Falls Rd,,,Baltimore,Maryland,21211,United States,4434384846,https://www.nepenthebrewingco.com/,-76.6353681,39.3313943
9d9fecf0-04a2-4fdb-bb1f-3d50e8a79427,Ocean City Brewing Company,brewpub,5509 Coastal Hwy,,,Ocean City,Maryland,21842-3144,United States,4436646842,http://www.ocbrewingcompany.com,-75.06838761,38.37965759
dd9deed9-dddf-45b9-b439-8a6a4d9be915,Olde Mother Brewing Co.,micro,526 N Market St.,,,Frederick,Maryland,21701,United States,3016241700,http://OldeMother.com,-77.3912138,39.40928
d5d6202f-bbba-45a5-b363-cf14a1b87ad5,Oliver Brewing Company,micro,4216 Shannon Dr,,,Baltimore,Maryland,21213-2144,United States,4104833302,http://www.oliverbrewingco.com,-76.5531792,39.3148825
a3525861-0aba-40f8-aff8-1af8bba01946,Patriot Acres Farm Brewery,micro,1621 Millington Rd,,,Sudlersville,Maryland,21668-1427,United States,4107085424,http://www.patriotacresfarmbrewery.com,-75.86736136,39.22228298
79e4d05e-14c1-4af7-b2a9-192eebe502c0,Peabody Heights Brewery,micro,401 E 30th St,,,Baltimore,Maryland,21218-3935,United States,4104677837,http://www.peabodyheightsbrewery.com,-76.6104348,39.3243423
a84357fe-de60-40f1-b22a-6283c4f3a227,Pherm Brewing,micro,1041 MD-3,,,Gambrills,Maryland,21054,United States,4433022535,http://phermbrewing.com/,-76.6855756,39.0276085
7c9dc112-6b7f-4ecf-8406-aa9c1200d0df,Pickett Brewing Company,micro,1130 South Paca Street,,,Baltimore,Maryland,21230,United States,4434386058,https://pickettbrewingco.com/,-76.627809,39.278812
123d45d1-0463-437a-acc9-323a3c14b4d7,Pipe the Side Brewing Company,nano,"721 Hanover Pike, Suite 147",,,Hampstead,Maryland,21074,United States,4436392980,http://www.pipethesidebrewingcompany.com/,-76.8435837,39.5936846
8342cc4f-2867-423c-be9c-5384b7e8a3f7,Pooles Island Brewing Company,micro,11695 Crossroads Circle,,,Middle River,Maryland,21220,United States,4106309164,https://www.poolesbrewing.com/,-76.4008255,39.3525612
e9e12c70-825e-404b-b265-dbeb4bdbd556,Pooles Island Brewing Company,micro,11695 Crossroads Circle,,,Middle River,Maryland,21220,United States,4106309164,https://www.poolesbrewing.com/,-76.4008255,39.3525612
f3277674-533f-49bc-8e1a-c8087d019d1b,Pratt Street Ale House,brewpub,206 W Pratt St,,,Baltimore,Maryland,21201-2426,United States,4102448900,http://www.oliverales.com,-76.61815436,39.28659055
b34c3873-63ff-4815-b7f9-07e72b3699e3,Prospect Point Brewing,micro,5500A Jefferson Pike,,,Frederick,Maryland,21703,United States,2404908943,http://prospectpointbrewing.com/,-77.4769918,39.3865838
2c797daa-c0a9-4a75-86b0-ed59a6a78b52,PUB DOG Brewing Company,micro,1203 New Windsor Rd,,,Westminster,Maryland,21158-6704,United States,4108483993,http://www.pubdog.com,-77.05229796,39.55045197
d6b76c7e-49ce-4430-9570-e8259e6f2c4c,RAK Brewing,micro,400 Sagner Ave Suite 200,,,Frederick,Maryland,21701,United States,2404469034,https://rakbrewing.com/,-77.4033704,39.4122174
9d404fb4-ccce-4f36-80f1-abcb08db1c7a,RAR Brewing,proprietor,504 Poplar St,,,Cambridge,Maryland,21613-1834,United States,4107257922,http://www.rarbrewing.com,-76.0774552,38.5702289
02d53131-909b-47c1-89f9-200f760bf60c,Reckless Shepherd Brewing Company,brewpub,8895 McGaw Road,,,Columbia,Maryland,21045,United States,4103124907,https://recklessshepherd.com/,-76.8210592,39.1877291
82f5632c-93f4-43b4-b98b-b33462688c31,Red Shedman Farm Brewery,micro,13601 Glissans Mill Rd,,,Mount Airy,Maryland,21771-8507,United States,3018315889,http://www.redshedman.com,-77.1924996,39.4228993
871fd4b2-cd72-4883-86d1-d9b99e632b29,Rock Bottom Brewery - Bethesda,brewpub,7900 Norfolk Ave,,,Bethesda,Maryland,20814-2502,United States,3016521311,http://www.rockbottom.com,-77.0976716,38.9890033
a97cece8-723b-47c3-8962-dd9b9cfe57e0,Rockwell Brewery,micro,880 N East St Unit 201,,,Frederick,Maryland,21701-5045,United States,3017324880,http://www.rockwellbrewery.com,-77.3808825,39.4401824
e58f1b87-85b0-4adb-8fb1-d6e1eaa833a6,Rubber Soul Brewing,micro,1930 Northwood Dr,,,Salisbury,Maryland,21801-7824,United States,4433047685,http://www.rubbersoulbrewing.com,-75.58418801,38.39109674
3f21deb3-122f-44c3-87c2-9e729a40955b,Ruddy Duck Brewery and Grill,brewpub,13200 Dowell Rd,,,Dowell,Maryland,20629,United States,4103943825,http://www.ruddyduckbrewery.com,-76.45795,38.350501
646f5ed7-b512-4652-aa67-b981d3cfc266,Ruhlman Brewery/Our Ales,planning,2300 Harvey Gummel Rd,,,Hampstead,Maryland,21074-1033,United States,,,-76.9110908,39.6373751
ecad9cc5-6f68-49c6-bab0-68064c79d60c,Ruhlman Brewing Company,micro,2300 Harvey Gummel Road,,,Hampstead,Maryland,21074,United States,4102594166,https://www.facebook.com/ourales,-76.9085159,39.637371
b52a2cbf-4041-43b6-afbb-151883c9900d,Saints Row Brewing,micro,"15 Fulks Corner Avenue, Suite 101-102",,,Gaithersburg,Maryland,20877,United States,,http://www.saintsrowbeer.com,-77.13401808,39.09361715
6a4f1d69-a4f8-4fb4-88a6-580593cb2c59,Sandbox Brewhouse,micro,880 N East St #201,,,Frederick,Maryland,21701,United States,3016642618,http://sandboxbrewhouse.com/,-77.4028201,39.4248729
05a4e22d-05b6-49ef-bbfa-69267466cf86,Sapwood Cellars,brewpub,"8980 MD-108, Suite MNO",,,Columbia,Maryland,21045,United States,4435429304,https://sapwoodcellars.com/,-76.8230766,39.2293948
068a0a40-a868-4525-9b1f-c895586877aa,Scorpion Brewing,closed,"929 Skinners Turn Rd, Suite 100",,,Owings,Maryland,20736,United States,7033072400,http://www.scorpionbrewing.com,-76.6185717,38.6830448
df710d4d-63ff-4fec-82e6-42b9d2f0f107,Sigma Ingredients LLC,closed,,,,Salisbury,Maryland,21801-6739,United States,4104308903,http://www.sigmaingredients.com,,
0c576a06-35fd-4e9e-addc-8e4847f46d85,Silver Branch Brewing,brewpub,8401 Colesville Rd #150,,,Silver Spring,Maryland,20910,United States,3012881112,https://www.silverbranchbrewing.com/,-77.0312951,38.9949899
7ebe445c-c514-4f59-a3d7-b745037b1ff1,Sinepuxent Brewing Company,micro,8816 Stephen Decatur Highway,,,Berlin,Maryland,21811,United States,4435133038,https://www.sinbrewing.com/,-75.139801,38.3025016
2c56fb62-1beb-4f7b-9994-c1b4413c8c80,Slate Farm Brewery,micro,2128 Whiteford Rd,,,Whiteford,Maryland,21160-1402,United States,4102313317,http://www.slatefarmbrewery.com/,-76.3369752,39.7036891
7d0390dd-7798-4be0-8df3-9dab9fb59ae2,Smoketown Brewing Station,micro,223 W Potomac St,,,Brunswick,Maryland,21716-1117,United States,3018344828,http://www.smoketownbrewing.com,-77.6302935,39.3136514
c248e0a7-e70f-4cf5-9fb4-dcd65ec49648,"Springfield Manor Brewery, Winery & Distillery",micro,11836 Auburn Rd,,,Thurmont,Maryland,21788,United States,3012710099,https://www.springfieldmanor.com/,-77.4346912,39.5589667
061fff88-4a8a-4a81-8a99-2ac2d203732c,Steinhardt Brewing Company,micro,"340 East Patrick St, Suite 100-102",,,Frederick,Maryland,21701,United States,,http://www.steinhardtbrewing.com,-77.512519,39.391045
47b9435c-a74e-47ed-887d-6c0830648d6d,Stillwater Artisanal Ales,closed,720 S Conkling St,,,Baltimore,Maryland,21224-4301,United States,4436685255,https://www.stillwater-artisanal.com,-76.56726435,39.28408355
dd23ad44-138e-4bcc-856f-d08887733112,Stone Silo Brewery,micro,28800 Kemptown Road,,,Damascus,Maryland,20872,United States,3012563118,http://stonesilobrewery.com/,-77.2131897,39.3279203
31ea7b52-41bb-42de-9287-dffb127d273a,Streetcar 82 Brewing Co.,micro,4824 Rhode Island Ave,,,Hyattsville,Maryland,20781-2034,United States,2407820152,http://www.streetcar82brewing.com,-76.9430028,38.9493263
e6ca2c99-2803-45b8-8b31-ad9f654d9a91,Suspended Brewing Co,micro,912 Washington Blvd,,,Baltimore,Maryland,21230-2318,United States,3016466359,http://www.suspendedbrewing.com,-76.63148921,39.2831169
458d02fe-149e-4bad-bcf6-38db49854fc0,Tall Tales Brewing Co. LLC,brewpub,6929 Heron Grove Ct Ste 102,,,Parsonsburg,Maryland,21849-2155,United States,4105432739,http://www.talltalesbrew.com,-75.4731305,38.3819486
a7929906-12e8-4f50-b527-cdccbea3fb42,Ten Eyck Brewing Company,micro,205 Grange Hall Road,,,Queenstown,Maryland,21658,United States,8134777249,http://teneyckbrewing.com/,-76.0772094,38.9562149
f81bd42b-4d02-42e4-b298-4329ff834d6e,The Brewer's Art,brewpub,1106 N Charles St,,,Baltimore,Maryland,21201-5557,United States,,http://www.thebrewersart.com,-76.6146068,39.303716
204d61f5-4b32-4172-a8b3-5aabed917ea2,The Buzz Meadery,closed,"9040 Worcester Hwy, Unit D",,,Berlin,Maryland,21811,United States,4103059068,https://www.thebuzzmeadery.com/,-75.2199426,38.3240091
109e48c5-be0e-48f6-a017-4269bf6f51c2,The Federal Brewing Company,micro,102 S Main St,,,Federalsburg,Maryland,21632-1215,United States,,http://www.fedbrew.com,-75.77333325,38.69360488
68665875-96c0-42b1-b729-eab3498fddb3,The Other One Brewing Co.,planning,2305 Philadelphia Ave,,,Ocean City,Maryland,21842,United States,4102893329,https://www.theotheronebrewing.com/,-75.077305,38.3527894
3cf4bb54-91f5-4a77-9a2a-e496ecd01eae,Thick n Thin Brewing Co.,micro,18330 Sparks Dr. Suite 301-303,,,Hagerstown,Maryland,21740,United States,2403664147,https://thickandthinbrewery.com/,-77.733827,39.6013626
ed067d39-6a9c-417c-8495-946d23fdd627,Third Hill Brewing Co.,brewpub,8216 Georgia Ave,,,Silver Spring,Maryland,20910,United States,3017552090,https://www.thirdhillbrewing.com/,-77.0269628,38.9921363
f8c87072-d4bd-49c5-8f24-736f9b85280f,True Respite Brewing Company,micro,7301 Calhoun Pl Ste 600,,,Derwood,Maryland,20855-2740,United States,3012848447,http://www.truerespite.com,-77.152035,39.108112
ed15a267-a12c-4343-a94f-46ee2488c42a,Tuppers Hop Pocket Ale,closed,6404 Redwing Rd,,,Bethesda,Maryland,20817-5920,United States,3012292027,http://www.tuppersbeers.com,-77.1298422,38.9734413
f1f61792-e88e-4d36-8892-fa9ddc7499f8,"Tusculum Farm Enterprises, LLC",closed,4601 Damascus Rd,,,Gaithersburg,Maryland,20882,United States,7407070700,https://tusculumfarm.com/,-77.0916751,39.2363074
57bf2d17-e7a8-4ec4-8890-4a361a7b2dc7,Two Story Chimney Ciderworks,closed,7115 Damascus Rd,,,Gaithersburg,Maryland,20882,United States,2407455390,https://twostorychimney.com/,-77.1444596,39.2573672
09d390e3-f8db-47d3-a37f-039f67950c76,Union Craft Brewing Co.,micro,1700 W 41st St #420,,,Baltimore,Maryland,21211-1499,United States,4106169282,http://www.unioncraftbrewing.com,-76.6441998,39.3362531
74d1ca5c-86f3-4dd4-990a-3ddaf355e153,Upper Stem Brewery,micro,20150 Leitersburg Pike,,,Hagerstown,Maryland,21742,United States,3018489527,http://www.upperstembrewery.com/,-77.668518,39.6856155
d48f7e45-6ea1-45c2-b0a7-c4e60036d903,Waredaca Brewing Company,micro,4017 Damascus Rd,,,Laytonsville,Maryland,20882,United States,2404322255,http://www.waredacabrewing.com,-77.0748401,39.2250684
b0b2d8dd-742f-40ab-8b17-fb335084e5bd,Waverly Brewing Company,micro,1625-C Union Ave,,,Baltimore,Maryland,21211,United States,4434385765,http://www.waverlybrewingcompany.com,-76.641365,39.3313756
a65c58fa-7082-4317-bbc3-a723049bb2a5,White Marsh Brewing Co/Red Brick Station,brewpub,8149 Honeygo Blvd Ste A,,,Baltimore,Maryland,21236-8209,United States,4109317827,http://www.redbrickstation.com,-76.4643617,39.3714237
6c702f4a-03f9-4d7a-a3e2-6d7043b8e542,Wico Street Beer Company,micro,1100 Wicomico St,,,Baltimore,Maryland,21230,United States,4434651290,http://www.wicostreetbeerco.com/,-76.6297108,39.2792949